start=new Date('2022-05-28T00:00:00.000Z').valueOf();
sats=[{"REV_AT_EPOCH":"7258","OBJECT_NAME":"STARLINK-1782","PERIOD":"95.592","FILE":"3467585","EPOCH":"2022-05-27T08:16:09.675552","CLASSIFICATION_TYPE":"U","TLE_LINE1":"1 47548U 21009A   22147.34455643 -.00001078  00000-0 -53450-4 0  9999","MEAN_MOTION":"15.06395392","ELEMENT_SET_NO":"999","SITE":"AFETR","REF_FRAME":"TEME","NORAD_CAT_ID":"47548","PERIAPSIS":"545.931","OBJECT_ID":"2021-009A","CENTER_NAME":"EARTH","MEAN_ANOMALY":"313.7398","SEMIMAJOR_AXIS":"6925.363","OBJECT_TYPE":"PAYLOAD","RA_OF_ASC_NODE":"97.2130","COUNTRY_CODE":"US","ARG_OF_PERICENTER":"46.3746","RCS_SIZE":"LARGE","TLE_LINE2":"2 47548  53.0540  97.2130 0001873  46.3746 313.7398 15.06395392 72587","MEAN_ELEMENT_THEORY":"SGP4","BSTAR":"-0.00005345000000","APOAPSIS":"548.525","LAUNCH_DATE":"2021-02-04","DECAY_DATE":null,"MEAN_MOTION_DDOT":"0.0000000000000","TIME_SYSTEM":"UTC","GP_ID":"204678636","INCLINATION":"53.0540","ECCENTRICITY":"0.00018730","MEAN_MOTION_DOT":"-0.00001078","EPHEMERIS_TYPE":"0"},{"PERIAPSIS":"546.130","OBJECT_ID":"2021-009B","REF_FRAME":"TEME","SITE":"AFETR","NORAD_CAT_ID":"47549","TLE_LINE1":"1 47549U 21009B   22147.27452351  .00001620  00000-0  12767-3 0  9991","MEAN_MOTION":"15.06395513","ELEMENT_SET_NO":"999","CLASSIFICATION_TYPE":"U","EPOCH":"2022-05-27T06:35:18.831264","PERIOD":"95.592","OBJECT_NAME":"STARLINK-1806","FILE":"3467585","REV_AT_EPOCH":"7257","RA_OF_ASC_NODE":"97.5264","OBJECT_TYPE":"PAYLOAD","SEMIMAJOR_AXIS":"6925.362","MEAN_ANOMALY":"301.6167","CENTER_NAME":"EARTH","DECAY_DATE":null,"LAUNCH_DATE":"2021-02-04","APOAPSIS":"548.324","BSTAR":"0.00012767000000","TLE_LINE2":"2 47549  53.0535  97.5264 0001584  58.4976 301.6167 15.06395513 72575","MEAN_ELEMENT_THEORY":"SGP4","RCS_SIZE":"LARGE","ARG_OF_PERICENTER":"58.4976","COUNTRY_CODE":"US","EPHEMERIS_TYPE":"0","MEAN_MOTION_DOT":"0.00001620","ECCENTRICITY":"0.00015840","INCLINATION":"53.0535","GP_ID":"204678881","TIME_SYSTEM":"UTC","MEAN_MOTION_DDOT":"0.0000000000000"},{"INCLINATION":"53.0547","ECCENTRICITY":"0.00017670","MEAN_MOTION_DOT":"-0.00000256","EPHEMERIS_TYPE":"0","MEAN_MOTION_DDOT":"0.0000000000000","TIME_SYSTEM":"UTC","GP_ID":"204714602","MEAN_ELEMENT_THEORY":"SGP4","TLE_LINE2":"2 47550  53.0547  85.0872 0001767  48.7884 311.3257 15.06391937 72798","APOAPSIS":"548.462","BSTAR":"0.00000170590000","LAUNCH_DATE":"2021-02-04","DECAY_DATE":null,"COUNTRY_CODE":"US","ARG_OF_PERICENTER":"48.7884","RCS_SIZE":"LARGE","OBJECT_TYPE":"PAYLOAD","RA_OF_ASC_NODE":"85.0872","CENTER_NAME":"EARTH","MEAN_ANOMALY":"311.3257","SEMIMAJOR_AXIS":"6925.373","MEAN_MOTION":"15.06391937","TLE_LINE1":"1 47550U 21009C   22147.81728631 -.00000256  00000-0  17059-5 0  9996","ELEMENT_SET_NO":"999","NORAD_CAT_ID":"47550","SITE":"AFETR","REF_FRAME":"TEME","OBJECT_ID":"2021-009C","PERIAPSIS":"546.015","REV_AT_EPOCH":"7279","FILE":"3468079","PERIOD":"95.593","OBJECT_NAME":"STARLINK-1909","EPOCH":"2022-05-27T19:36:53.537184","CLASSIFICATION_TYPE":"U"},{"EPOCH":"2022-05-27T06:44:36.172608","CLASSIFICATION_TYPE":"U","REV_AT_EPOCH":"7243","OBJECT_NAME":"STARLINK-1938","PERIOD":"95.592","FILE":"3467585","SITE":"AFETR","REF_FRAME":"TEME","NORAD_CAT_ID":"47551","PERIAPSIS":"545.678","OBJECT_ID":"2021-009D","TLE_LINE1":"1 47551U 21009D   22147.28097422  .00000089  00000-0  24919-4 0  9990","ELEMENT_SET_NO":"999","MEAN_MOTION":"15.06398821","SEMIMAJOR_AXIS":"6925.352","CENTER_NAME":"EARTH","MEAN_ANOMALY":"315.5047","RA_OF_ASC_NODE":"107.5045","OBJECT_TYPE":"PAYLOAD","RCS_SIZE":"LARGE","COUNTRY_CODE":"US","ARG_OF_PERICENTER":"44.6121","LAUNCH_DATE":"2021-02-04","DECAY_DATE":null,"TLE_LINE2":"2 47551  53.0559 107.5045 0002222  44.6121 315.5047 15.06398821 72433","MEAN_ELEMENT_THEORY":"SGP4","APOAPSIS":"548.756","BSTAR":"0.00002491900000","MEAN_MOTION_DDOT":"0.0000000000000","GP_ID":"204679877","TIME_SYSTEM":"UTC","MEAN_MOTION_DOT":"0.00000089","EPHEMERIS_TYPE":"0","ECCENTRICITY":"0.00022220","INCLINATION":"53.0559"},{"COUNTRY_CODE":"US","ARG_OF_PERICENTER":"56.0473","RCS_SIZE":"LARGE","TLE_LINE2":"2 47552  53.0559  96.2868 0001867  56.0473 304.0693 15.06383784 72614","MEAN_ELEMENT_THEORY":"SGP4","APOAPSIS":"548.556","BSTAR":"-0.00001787200000","LAUNCH_DATE":"2021-02-04","DECAY_DATE":null,"MEAN_MOTION_DDOT":"0.0000000000000","GP_ID":"204678136","TIME_SYSTEM":"UTC","ECCENTRICITY":"0.00018670","INCLINATION":"53.0559","MEAN_MOTION_DOT":"-0.00000548","EPHEMERIS_TYPE":"0","REV_AT_EPOCH":"7261","OBJECT_NAME":"STARLINK-1940","PERIOD":"95.593","FILE":"3467585","EPOCH":"2022-05-27T13:13:24.788640","CLASSIFICATION_TYPE":"U","TLE_LINE1":"1 47552U 21009E   22147.55098135 -.00000548  00000-0 -17872-4 0  9995","ELEMENT_SET_NO":"999","MEAN_MOTION":"15.06383784","REF_FRAME":"TEME","SITE":"AFETR","NORAD_CAT_ID":"47552","PERIAPSIS":"545.970","OBJECT_ID":"2021-009E","CENTER_NAME":"EARTH","MEAN_ANOMALY":"304.0693","SEMIMAJOR_AXIS":"6925.398","OBJECT_TYPE":"PAYLOAD","RA_OF_ASC_NODE":"96.2868"},{"LAUNCH_DATE":"2021-02-04","DECAY_DATE":null,"MEAN_ELEMENT_THEORY":"SGP4","TLE_LINE2":"2 47554  53.0541 114.7712 0001914  64.1692 295.9494 15.06403107 72997","APOAPSIS":"548.530","BSTAR":"0.00015796000000","RCS_SIZE":"LARGE","COUNTRY_CODE":"US","ARG_OF_PERICENTER":"64.1692","MEAN_MOTION_DOT":"0.00002072","EPHEMERIS_TYPE":"0","ECCENTRICITY":"0.00019140","INCLINATION":"53.0541","MEAN_MOTION_DDOT":"0.0000000000000","TIME_SYSTEM":"UTC","GP_ID":"204689217","NORAD_CAT_ID":"47554","SITE":"AFETR","REF_FRAME":"TEME","PERIAPSIS":"545.879","OBJECT_ID":"2021-009G","TLE_LINE1":"1 47554U 21009G   22147.88822622  .00002072  00000-0  15796-3 0  9993","ELEMENT_SET_NO":"999","MEAN_MOTION":"15.06403107","EPOCH":"2022-05-27T21:19:02.745408","CLASSIFICATION_TYPE":"U","REV_AT_EPOCH":"7299","FILE":"3467838","PERIOD":"95.592","OBJECT_NAME":"STARLINK-1953","RA_OF_ASC_NODE":"114.7712","OBJECT_TYPE":"PAYLOAD","SEMIMAJOR_AXIS":"6925.339","CENTER_NAME":"EARTH","MEAN_ANOMALY":"295.9494"},{"MEAN_MOTION":"15.06363732","TLE_LINE1":"1 47555U 21009H   22147.59797859  .00008229  00000-0  57123-3 0  9995","ELEMENT_SET_NO":"999","SITE":"AFETR","REF_FRAME":"TEME","NORAD_CAT_ID":"47555","OBJECT_ID":"2021-009H","PERIAPSIS":"546.104","REV_AT_EPOCH":"7308","PERIOD":"95.594","OBJECT_NAME":"STARLINK-1954","FILE":"3467324","EPOCH":"2022-05-27T14:21:05.350176","CLASSIFICATION_TYPE":"U","OBJECT_TYPE":"PAYLOAD","RA_OF_ASC_NODE":"106.0620","CENTER_NAME":"EARTH","MEAN_ANOMALY":"309.4653","SEMIMAJOR_AXIS":"6925.460","TLE_LINE2":"2 47555  53.0545 106.0620 0001762  50.6492 309.4653 15.06363732 73081","MEAN_ELEMENT_THEORY":"SGP4","BSTAR":"0.00057123000000","APOAPSIS":"548.545","LAUNCH_DATE":"2021-02-04","DECAY_DATE":null,"COUNTRY_CODE":"US","ARG_OF_PERICENTER":"50.6492","RCS_SIZE":"LARGE","ECCENTRICITY":"0.00017620","INCLINATION":"53.0545","MEAN_MOTION_DOT":"0.00008229","EPHEMERIS_TYPE":"0","MEAN_MOTION_DDOT":"0.0000000000000","GP_ID":"204651302","TIME_SYSTEM":"UTC"},{"OBJECT_TYPE":"PAYLOAD","RA_OF_ASC_NODE":"125.9148","CENTER_NAME":"EARTH","MEAN_ANOMALY":"316.3149","SEMIMAJOR_AXIS":"6925.382","MEAN_MOTION":"15.06389246","TLE_LINE1":"1 47556U 21009J   22147.63299416 -.00001020  00000-0 -49596-4 0  9997","ELEMENT_SET_NO":"999","NORAD_CAT_ID":"47556","REF_FRAME":"TEME","SITE":"AFETR","PERIAPSIS":"545.538","OBJECT_ID":"2021-009J","REV_AT_EPOCH":"7220","FILE":"3468079","OBJECT_NAME":"STARLINK-1955","PERIOD":"95.593","EPOCH":"2022-05-27T15:11:30.695424","CLASSIFICATION_TYPE":"U","INCLINATION":"53.0544","ECCENTRICITY":"0.00024670","MEAN_MOTION_DOT":"-0.00001020","EPHEMERIS_TYPE":"0","MEAN_MOTION_DDOT":"0.0000000000000","TIME_SYSTEM":"UTC","GP_ID":"204715352","MEAN_ELEMENT_THEORY":"SGP4","TLE_LINE2":"2 47556  53.0544 125.9148 0002467  43.8035 316.3149 15.06389246 72204","BSTAR":"-0.00004959600000","APOAPSIS":"548.955","LAUNCH_DATE":"2021-02-04","DECAY_DATE":null,"COUNTRY_CODE":"US","ARG_OF_PERICENTER":"43.8035","RCS_SIZE":"LARGE"},{"CENTER_NAME":"EARTH","MEAN_ANOMALY":"311.8391","SEMIMAJOR_AXIS":"6925.385","OBJECT_TYPE":"PAYLOAD","RA_OF_ASC_NODE":"124.5830","REV_AT_EPOCH":"7225","OBJECT_NAME":"STARLINK-1956","PERIOD":"95.593","FILE":"3468079","EPOCH":"2022-05-27T22:16:07.661280","CLASSIFICATION_TYPE":"U","MEAN_MOTION":"15.06388215","TLE_LINE1":"1 47557U 21009K   22147.92786645  .00000447  00000-0  48918-4 0  9992","ELEMENT_SET_NO":"999","SITE":"AFETR","REF_FRAME":"TEME","NORAD_CAT_ID":"47557","PERIAPSIS":"545.728","OBJECT_ID":"2021-009K","MEAN_MOTION_DDOT":"0.0000000000000","TIME_SYSTEM":"UTC","GP_ID":"204715601","INCLINATION":"53.0540","ECCENTRICITY":"0.00021970","MEAN_MOTION_DOT":"0.00000447","EPHEMERIS_TYPE":"0","COUNTRY_CODE":"US","ARG_OF_PERICENTER":"48.2785","RCS_SIZE":"LARGE","TLE_LINE2":"2 47557  53.0540 124.5830 0002197  48.2785 311.8391 15.06388215 72254","MEAN_ELEMENT_THEORY":"SGP4","APOAPSIS":"548.771","BSTAR":"0.00004891800000","LAUNCH_DATE":"2021-02-04","DECAY_DATE":null},{"APOAPSIS":"548.507","BSTAR":"0.00002845700000","MEAN_ELEMENT_THEORY":"SGP4","TLE_LINE2":"2 47558  53.0553  94.9787 0001842  37.5740 322.5378 15.06394050 72650","DECAY_DATE":null,"LAUNCH_DATE":"2021-02-04","ARG_OF_PERICENTER":"37.5740","COUNTRY_CODE":"US","RCS_SIZE":"LARGE","INCLINATION":"53.0553","ECCENTRICITY":"0.00018420","EPHEMERIS_TYPE":"0","MEAN_MOTION_DOT":"0.00000142","GP_ID":"204715844","TIME_SYSTEM":"UTC","MEAN_MOTION_DDOT":"0.0000000000000","TLE_LINE1":"1 47558U 21009L   22147.84216215  .00000142  00000-0  28457-4 0  9993","ELEMENT_SET_NO":"999","MEAN_MOTION":"15.06394050","PERIAPSIS":"545.956","OBJECT_ID":"2021-009L","NORAD_CAT_ID":"47558","SITE":"AFETR","REF_FRAME":"TEME","FILE":"3468079","OBJECT_NAME":"STARLINK-1957","PERIOD":"95.593","REV_AT_EPOCH":"7265","CLASSIFICATION_TYPE":"U","EPOCH":"2022-05-27T20:12:42.809760","OBJECT_TYPE":"PAYLOAD","RA_OF_ASC_NODE":"94.9787","MEAN_ANOMALY":"322.5378","CENTER_NAME":"EARTH","SEMIMAJOR_AXIS":"6925.367"}];
